<?xml version="1.0" encoding="UTF-8"?>
<ndm xmlns:xsi="http://www.w3.org/2001/XMLSchema-instance" xsi:noNamespaceSchemaLocation="https://sanaregistry.org/r/ndmxml_unqualified/ndmxml-2.0.0-master-2.0.xsd">
<omm id="CCSDS_OMM_VERS" version="2.0">
<header><CREATION_DATE/><ORIGINATOR/></header><body><segment><metadata><OBJECT_NAME>KUIPER-00016</OBJECT_NAME><OBJECT_ID>2025-088J</OBJECT_ID><CENTER_NAME>EARTH</CENTER_NAME><REF_FRAME>TEME</REF_FRAME><TIME_SYSTEM>UTC</TIME_SYSTEM><MEAN_ELEMENT_THEORY>SGP4</MEAN_ELEMENT_THEORY></metadata><data><meanElements><EPOCH>2025-07-18T22:00:01.999584</EPOCH><MEAN_MOTION>15.16377986</MEAN_MOTION><ECCENTRICITY>.0010283</ECCENTRICITY><INCLINATION>51.8825</INCLINATION><RA_OF_ASC_NODE>70.3871</RA_OF_ASC_NODE><ARG_OF_PERICENTER>34.6058</ARG_OF_PERICENTER><MEAN_ANOMALY>275.2878</MEAN_ANOMALY></meanElements><tleParameters><EPHEMERIS_TYPE>0</EPHEMERIS_TYPE><CLASSIFICATION_TYPE>U</CLASSIFICATION_TYPE><NORAD_CAT_ID>63732</NORAD_CAT_ID><ELEMENT_SET_NO>999</ELEMENT_SET_NO><REV_AT_EPOCH>1263</REV_AT_EPOCH><BSTAR>-.52282E-1</BSTAR><MEAN_MOTION_DOT>-.95175E-2</MEAN_MOTION_DOT><MEAN_MOTION_DDOT>0</MEAN_MOTION_DDOT></tleParameters></data></segment></body></omm>
<omm id="CCSDS_OMM_VERS" version="2.0">
<header><CREATION_DATE/><ORIGINATOR/></header><body><segment><metadata><OBJECT_NAME>KUIPER-00018</OBJECT_NAME><OBJECT_ID>2025-088K</OBJECT_ID><CENTER_NAME>EARTH</CENTER_NAME><REF_FRAME>TEME</REF_FRAME><TIME_SYSTEM>UTC</TIME_SYSTEM><MEAN_ELEMENT_THEORY>SGP4</MEAN_ELEMENT_THEORY></metadata><data><meanElements><EPOCH>2025-07-18T15:03:20.123136</EPOCH><MEAN_MOTION>15.37140259</MEAN_MOTION><ECCENTRICITY>.0006214</ECCENTRICITY><INCLINATION>51.8685</INCLINATION><RA_OF_ASC_NODE>68.4949</RA_OF_ASC_NODE><ARG_OF_PERICENTER>38.2021</ARG_OF_PERICENTER><MEAN_ANOMALY>321.9405</MEAN_ANOMALY></meanElements><tleParameters><EPHEMERIS_TYPE>0</EPHEMERIS_TYPE><CLASSIFICATION_TYPE>U</CLASSIFICATION_TYPE><NORAD_CAT_ID>63733</NORAD_CAT_ID><ELEMENT_SET_NO>999</ELEMENT_SET_NO><REV_AT_EPOCH>1264</REV_AT_EPOCH><BSTAR>.35661E-3</BSTAR><MEAN_MOTION_DOT>.12805E-3</MEAN_MOTION_DOT><MEAN_MOTION_DDOT>0</MEAN_MOTION_DDOT></tleParameters></data></segment></body></omm>
<omm id="CCSDS_OMM_VERS" version="2.0">
<header><CREATION_DATE/><ORIGINATOR/></header><body><segment><metadata><OBJECT_NAME>KUIPER-00019</OBJECT_NAME><OBJECT_ID>2025-088L</OBJECT_ID><CENTER_NAME>EARTH</CENTER_NAME><REF_FRAME>TEME</REF_FRAME><TIME_SYSTEM>UTC</TIME_SYSTEM><MEAN_ELEMENT_THEORY>SGP4</MEAN_ELEMENT_THEORY></metadata><data><meanElements><EPOCH>2025-07-18T08:37:49.204992</EPOCH><MEAN_MOTION>15.36977323</MEAN_MOTION><ECCENTRICITY>.0003996</ECCENTRICITY><INCLINATION>51.8689</INCLINATION><RA_OF_ASC_NODE>69.7095</RA_OF_ASC_NODE><ARG_OF_PERICENTER>53.9042</ARG_OF_PERICENTER><MEAN_ANOMALY>306.2314</MEAN_ANOMALY></meanElements><tleParameters><EPHEMERIS_TYPE>0</EPHEMERIS_TYPE><CLASSIFICATION_TYPE>U</CLASSIFICATION_TYPE><NORAD_CAT_ID>63734</NORAD_CAT_ID><ELEMENT_SET_NO>999</ELEMENT_SET_NO><REV_AT_EPOCH>1260</REV_AT_EPOCH><BSTAR>.32464E-3</BSTAR><MEAN_MOTION_DOT>.11555E-3</MEAN_MOTION_DOT><MEAN_MOTION_DDOT>0</MEAN_MOTION_DDOT></tleParameters></data></segment></body></omm>
<omm id="CCSDS_OMM_VERS" version="2.0">
<header><CREATION_DATE/><ORIGINATOR/></header><body><segment><metadata><OBJECT_NAME>KUIPER-00020</OBJECT_NAME><OBJECT_ID>2025-088M</OBJECT_ID><CENTER_NAME>EARTH</CENTER_NAME><REF_FRAME>TEME</REF_FRAME><TIME_SYSTEM>UTC</TIME_SYSTEM><MEAN_ELEMENT_THEORY>SGP4</MEAN_ELEMENT_THEORY></metadata><data><meanElements><EPOCH>2025-07-18T22:00:01.999584</EPOCH><MEAN_MOTION>15.33022297</MEAN_MOTION><ECCENTRICITY>.0007327</ECCENTRICITY><INCLINATION>51.8700</INCLINATION><RA_OF_ASC_NODE>67.5364</RA_OF_ASC_NODE><ARG_OF_PERICENTER>40.4416</ARG_OF_PERICENTER><MEAN_ANOMALY>265.6498</MEAN_ANOMALY></meanElements><tleParameters><EPHEMERIS_TYPE>0</EPHEMERIS_TYPE><CLASSIFICATION_TYPE>U</CLASSIFICATION_TYPE><NORAD_CAT_ID>63735</NORAD_CAT_ID><ELEMENT_SET_NO>999</ELEMENT_SET_NO><REV_AT_EPOCH>1288</REV_AT_EPOCH><BSTAR>-.40286E-1</BSTAR><MEAN_MOTION_DOT>-.1187228E-1</MEAN_MOTION_DOT><MEAN_MOTION_DDOT>0</MEAN_MOTION_DDOT></tleParameters></data></segment></body></omm>
<omm id="CCSDS_OMM_VERS" version="2.0">
<header><CREATION_DATE/><ORIGINATOR/></header><body><segment><metadata><OBJECT_NAME>KUIPER-00021</OBJECT_NAME><OBJECT_ID>2025-088N</OBJECT_ID><CENTER_NAME>EARTH</CENTER_NAME><REF_FRAME>TEME</REF_FRAME><TIME_SYSTEM>UTC</TIME_SYSTEM><MEAN_ELEMENT_THEORY>SGP4</MEAN_ELEMENT_THEORY></metadata><data><meanElements><EPOCH>2025-07-18T14:57:20.023488</EPOCH><MEAN_MOTION>15.31482253</MEAN_MOTION><ECCENTRICITY>.0006878</ECCENTRICITY><INCLINATION>51.8687</INCLINATION><RA_OF_ASC_NODE>69.2077</RA_OF_ASC_NODE><ARG_OF_PERICENTER>63.6124</ARG_OF_PERICENTER><MEAN_ANOMALY>296.5565</MEAN_ANOMALY></meanElements><tleParameters><EPHEMERIS_TYPE>0</EPHEMERIS_TYPE><CLASSIFICATION_TYPE>U</CLASSIFICATION_TYPE><NORAD_CAT_ID>63736</NORAD_CAT_ID><ELEMENT_SET_NO>999</ELEMENT_SET_NO><REV_AT_EPOCH>1267</REV_AT_EPOCH><BSTAR>-.33189E-2</BSTAR><MEAN_MOTION_DOT>-.101468E-2</MEAN_MOTION_DOT><MEAN_MOTION_DDOT>0</MEAN_MOTION_DDOT></tleParameters></data></segment></body></omm>
<omm id="CCSDS_OMM_VERS" version="2.0">
<header><CREATION_DATE/><ORIGINATOR/></header><body><segment><metadata><OBJECT_NAME>KUIPER-00023</OBJECT_NAME><OBJECT_ID>2025-088P</OBJECT_ID><CENTER_NAME>EARTH</CENTER_NAME><REF_FRAME>TEME</REF_FRAME><TIME_SYSTEM>UTC</TIME_SYSTEM><MEAN_ELEMENT_THEORY>SGP4</MEAN_ELEMENT_THEORY></metadata><data><meanElements><EPOCH>2025-07-18T22:00:01.999584</EPOCH><MEAN_MOTION>15.28004539</MEAN_MOTION><ECCENTRICITY>.0009038</ECCENTRICITY><INCLINATION>51.8694</INCLINATION><RA_OF_ASC_NODE>68.2660</RA_OF_ASC_NODE><ARG_OF_PERICENTER>40.5864</ARG_OF_PERICENTER><MEAN_ANOMALY>280.5795</MEAN_ANOMALY></meanElements><tleParameters><EPHEMERIS_TYPE>0</EPHEMERIS_TYPE><CLASSIFICATION_TYPE>U</CLASSIFICATION_TYPE><NORAD_CAT_ID>63737</NORAD_CAT_ID><ELEMENT_SET_NO>999</ELEMENT_SET_NO><REV_AT_EPOCH>1300</REV_AT_EPOCH><BSTAR>-.45739E-1</BSTAR><MEAN_MOTION_DOT>-.1156009E-1</MEAN_MOTION_DOT><MEAN_MOTION_DDOT>0</MEAN_MOTION_DDOT></tleParameters></data></segment></body></omm>
<omm id="CCSDS_OMM_VERS" version="2.0">
<header><CREATION_DATE/><ORIGINATOR/></header><body><segment><metadata><OBJECT_NAME>KUIPER-00024</OBJECT_NAME><OBJECT_ID>2025-088Q</OBJECT_ID><CENTER_NAME>EARTH</CENTER_NAME><REF_FRAME>TEME</REF_FRAME><TIME_SYSTEM>UTC</TIME_SYSTEM><MEAN_ELEMENT_THEORY>SGP4</MEAN_ELEMENT_THEORY></metadata><data><meanElements><EPOCH>2025-07-18T14:58:58.675008</EPOCH><MEAN_MOTION>15.38257593</MEAN_MOTION><ECCENTRICITY>.0002288</ECCENTRICITY><INCLINATION>51.8738</INCLINATION><RA_OF_ASC_NODE>67.7669</RA_OF_ASC_NODE><ARG_OF_PERICENTER>90.6725</ARG_OF_PERICENTER><MEAN_ANOMALY>269.4525</MEAN_ANOMALY></meanElements><tleParameters><EPHEMERIS_TYPE>0</EPHEMERIS_TYPE><CLASSIFICATION_TYPE>U</CLASSIFICATION_TYPE><NORAD_CAT_ID>63738</NORAD_CAT_ID><ELEMENT_SET_NO>999</ELEMENT_SET_NO><REV_AT_EPOCH>1312</REV_AT_EPOCH><BSTAR>.20682E-3</BSTAR><MEAN_MOTION_DOT>.7532E-4</MEAN_MOTION_DOT><MEAN_MOTION_DDOT>0</MEAN_MOTION_DDOT></tleParameters></data></segment></body></omm>
<omm id="CCSDS_OMM_VERS" version="2.0">
<header><CREATION_DATE/><ORIGINATOR/></header><body><segment><metadata><OBJECT_NAME>KUIPER-00025</OBJECT_NAME><OBJECT_ID>2025-088R</OBJECT_ID><CENTER_NAME>EARTH</CENTER_NAME><REF_FRAME>TEME</REF_FRAME><TIME_SYSTEM>UTC</TIME_SYSTEM><MEAN_ELEMENT_THEORY>SGP4</MEAN_ELEMENT_THEORY></metadata><data><meanElements><EPOCH>2025-07-18T08:58:21.910944</EPOCH><MEAN_MOTION>15.36803668</MEAN_MOTION><ECCENTRICITY>.0005638</ECCENTRICITY><INCLINATION>51.8667</INCLINATION><RA_OF_ASC_NODE>69.7888</RA_OF_ASC_NODE><ARG_OF_PERICENTER>46.3917</ARG_OF_PERICENTER><MEAN_ANOMALY>313.7537</MEAN_ANOMALY></meanElements><tleParameters><EPHEMERIS_TYPE>0</EPHEMERIS_TYPE><CLASSIFICATION_TYPE>U</CLASSIFICATION_TYPE><NORAD_CAT_ID>63739</NORAD_CAT_ID><ELEMENT_SET_NO>999</ELEMENT_SET_NO><REV_AT_EPOCH>1293</REV_AT_EPOCH><BSTAR>.37781E-3</BSTAR><MEAN_MOTION_DOT>.1344E-3</MEAN_MOTION_DOT><MEAN_MOTION_DDOT>0</MEAN_MOTION_DDOT></tleParameters></data></segment></body></omm>

</ndm>
