KUIPER-00016            
1 63732U 25088J   25199.91668981 -.00951750  00000+0 -52282-1 0  9996
2 63732  51.8825  70.3871 0010283  34.6058 275.2878 15.16377986 12632
KUIPER-00018            
1 63733U 25088K   25199.62731624  .00012805  00000+0  35661-3 0  9991
2 63733  51.8685  68.4949 0006214  38.2021 321.9405 15.37140259 12640
KUIPER-00019            
1 63734U 25088L   25199.35959728  .00011555  00000+0  32464-3 0  9998
2 63734  51.8689  69.7095 0003996  53.9042 306.2314 15.36977323 12602
KUIPER-00020            
1 63735U 25088M   25199.91668981 -.01187228  00000+0 -40286-1 0  9992
2 63735  51.8700  67.5364 0007327  40.4416 265.6498 15.33022297 12889
KUIPER-00021            
1 63736U 25088N   25199.62314842 -.00101468  00000+0 -33189-2 0  9991
2 63736  51.8687  69.2077 0006878  63.6124 296.5565 15.31482253 12672
KUIPER-00023            
1 63737U 25088P   25199.91668981 -.01156009  00000+0 -45739-1 0  9995
2 63737  51.8694  68.2660 0009038  40.5864 280.5795 15.28004539 13003
KUIPER-00024            
1 63738U 25088Q   25199.62429022  .00007532  00000+0  20682-3 0  9990
2 63738  51.8738  67.7669 0002288  90.6725 269.4525 15.38257593 13129
KUIPER-00025            
1 63739U 25088R   25199.37386471  .00013440  00000+0  37781-3 0  9996
2 63739  51.8667  69.7888 0005638  46.3917 313.7537 15.36803668 12931
